{"fetched_at":"2026-07-17T17:37:51.795Z","source":"https://celestrak.org/NORAD/elements/gp.php?GROUP=kuiper&FORMAT=JSON","constellation":"kuiper","records":[{"OBJECT_NAME":"KUIPER-00191","OBJECT_ID":"2025-301L","EPOCH":"2026-07-17T01:43:30.158112","CLASSIFICATION_TYPE":"U","MEAN_MOTION":14.79927901,"ECCENTRICITY":0.00003516,"INCLINATION":51.9,"RA_OF_ASC_NODE":221.0213,"ARG_OF_PERICENTER":95.9581,"MEAN_ANOMALY":264.1422,"EPHEMERIS_TYPE":0,"NORAD_CAT_ID":67143,"ELEMENT_SET_NO":999,"REV_AT_EPOCH":3281,"BSTAR":0.00016237829,"MEAN_MOTION_DOT":0.00001017,"MEAN_MOTION_DDOT":0},{"OBJECT_NAME":"KUIPER-00196","OBJECT_ID":"2025-301M","EPOCH":"2026-07-16T11:23:57.203232","CLASSIFICATION_TYPE":"U","MEAN_MOTION":14.76347657,"ECCENTRICITY":0.0001211,"INCLINATION":51.8976,"RA_OF_ASC_NODE":180.0728,"ARG_OF_PERICENTER":358.9568,"MEAN_ANOMALY":1.139,"EPHEMERIS_TYPE":0,"NORAD_CAT_ID":67144,"ELEMENT_SET_NO":999,"REV_AT_EPOCH":3330,"BSTAR":0.00015824,"MEAN_MOTION_DOT":0.00000894,"MEAN_MOTION_DDOT":0},{"OBJECT_NAME":"KUIPER-00204","OBJECT_ID":"2025-301N","EPOCH":"2026-07-17T00:00:20.920032","CLASSIFICATION_TYPE":"U","MEAN_MOTION":14.79932561,"ECCENTRICITY":0.00004961,"INCLINATION":51.9002,"RA_OF_ASC_NODE":193.8226,"ARG_OF_PERICENTER":25.4858,"MEAN_ANOMALY":334.6129,"EPHEMERIS_TYPE":0,"NORAD_CAT_ID":67145,"ELEMENT_SET_NO":999,"REV_AT_EPOCH":3327,"BSTAR":0.00016186018,"MEAN_MOTION_DOT":0.00001013,"MEAN_MOTION_DDOT":0},{"OBJECT_NAME":"KUIPER-00210","OBJECT_ID":"2025-301P","EPOCH":"2026-07-16T11:56:55.764096","CLASSIFICATION_TYPE":"U","MEAN_MOTION":14.79939104,"ECCENTRICITY":0.0000387,"INCLINATION":51.8993,"RA_OF_ASC_NODE":223.5119,"ARG_OF_PERICENTER":78.059,"MEAN_ANOMALY":282.0415,"EPHEMERIS_TYPE":0,"NORAD_CAT_ID":67146,"ELEMENT_SET_NO":999,"REV_AT_EPOCH":3287,"BSTAR":0.0001575,"MEAN_MOTION_DOT":0.0000098,"MEAN_MOTION_DDOT":0},{"OBJECT_NAME":"KUIPER-00221","OBJECT_ID":"2025-301Q","EPOCH":"2026-07-16T12:33:54.211968","CLASSIFICATION_TYPE":"U","MEAN_MOTION":14.79931628,"ECCENTRICITY":0.0000454,"INCLINATION":51.9006,"RA_OF_ASC_NODE":230.9241,"ARG_OF_PERICENTER":76.1551,"MEAN_ANOMALY":283.9462,"EPHEMERIS_TYPE":0,"NORAD_CAT_ID":67147,"ELEMENT_SET_NO":999,"REV_AT_EPOCH":3260,"BSTAR":0.00015492,"MEAN_MOTION_DOT":0.0000096,"MEAN_MOTION_DDOT":0},{"OBJECT_NAME":"KUIPER-00232","OBJECT_ID":"2025-301R","EPOCH":"2026-07-17T01:06:31.619520","CLASSIFICATION_TYPE":"U","MEAN_MOTION":14.79927411,"ECCENTRICITY":0.0000354,"INCLINATION":51.8986,"RA_OF_ASC_NODE":213.6352,"ARG_OF_PERICENTER":69.0651,"MEAN_ANOMALY":291.0349,"EPHEMERIS_TYPE":0,"NORAD_CAT_ID":67148,"ELEMENT_SET_NO":999,"REV_AT_EPOCH":3288,"BSTAR":0.00014518567,"MEAN_MOTION_DOT":0.00000886,"MEAN_MOTION_DDOT":0},{"OBJECT_NAME":"KUIPER-00241","OBJECT_ID":"2025-301S","EPOCH":"2026-07-16T11:04:24.784608","CLASSIFICATION_TYPE":"U","MEAN_MOTION":14.79920243,"ECCENTRICITY":0.0000447,"INCLINATION":51.9025,"RA_OF_ASC_NODE":226.2211,"ARG_OF_PERICENTER":85.0491,"MEAN_ANOMALY":275.0522,"EPHEMERIS_TYPE":0,"NORAD_CAT_ID":67149,"ELEMENT_SET_NO":999,"REV_AT_EPOCH":3299,"BSTAR":0.00014865,"MEAN_MOTION_DOT":0.00000912,"MEAN_MOTION_DDOT":0},{"OBJECT_NAME":"KUIPER-00245","OBJECT_ID":"2025-301T","EPOCH":"2026-07-17T01:27:58.582944","CLASSIFICATION_TYPE":"U","MEAN_MOTION":14.79929439,"ECCENTRICITY":0.00002929,"INCLINATION":51.902,"RA_OF_ASC_NODE":231.0814,"ARG_OF_PERICENTER":80.9811,"MEAN_ANOMALY":279.1184,"EPHEMERIS_TYPE":0,"NORAD_CAT_ID":67150,"ELEMENT_SET_NO":999,"REV_AT_EPOCH":3264,"BSTAR":0.00018499276,"MEAN_MOTION_DOT":0.00001189,"MEAN_MOTION_DDOT":0},{"OBJECT_NAME":"KUIPER-00246","OBJECT_ID":"2025-301U","EPOCH":"2026-07-17T07:31:36.413760","CLASSIFICATION_TYPE":"U","MEAN_MOTION":14.79939065,"ECCENTRICITY":0.00004006,"INCLINATION":51.8997,"RA_OF_ASC_NODE":214.9148,"ARG_OF_PERICENTER":80.9833,"MEAN_ANOMALY":279.1174,"EPHEMERIS_TYPE":0,"NORAD_CAT_ID":67151,"ELEMENT_SET_NO":999,"REV_AT_EPOCH":3291,"BSTAR":0.00015087343,"MEAN_MOTION_DOT":0.00000929,"MEAN_MOTION_DDOT":0},{"OBJECT_NAME":"KUIPER-00247","OBJECT_ID":"2025-301V","EPOCH":"2026-07-17T01:18:11.758464","CLASSIFICATION_TYPE":"U","MEAN_MOTION":14.79932378,"ECCENTRICITY":0.00004632,"INCLINATION":51.8952,"RA_OF_ASC_NODE":206.0326,"ARG_OF_PERICENTER":70.7123,"MEAN_ANOMALY":289.389,"EPHEMERIS_TYPE":0,"NORAD_CAT_ID":67152,"ELEMENT_SET_NO":999,"REV_AT_EPOCH":3299,"BSTAR":0.00016510688,"MEAN_MOTION_DOT":0.00001038,"MEAN_MOTION_DDOT":0},{"OBJECT_NAME":"KUIPER-00248","OBJECT_ID":"2025-301W","EPOCH":"2026-07-17T00:07:52.035168","CLASSIFICATION_TYPE":"U","MEAN_MOTION":14.79937109,"ECCENTRICITY":0.00009309,"INCLINATION":51.8987,"RA_OF_ASC_NODE":188.8777,"ARG_OF_PERICENTER":82.3888,"MEAN_ANOMALY":277.718,"EPHEMERIS_TYPE":0,"NORAD_CAT_ID":67153,"ELEMENT_SET_NO":999,"REV_AT_EPOCH":3339,"BSTAR":-0.00064142417,"MEAN_MOTION_DOT":-0.00005108,"MEAN_MOTION_DDOT":0},{"OBJECT_NAME":"KUIPER-00249","OBJECT_ID":"2025-301X","EPOCH":"2026-07-17T01:22:02.187264","CLASSIFICATION_TYPE":"U","MEAN_MOTION":14.79934536,"ECCENTRICITY":0.00003752,"INCLINATION":51.8988,"RA_OF_ASC_NODE":203.5793,"ARG_OF_PERICENTER":58.7959,"MEAN_ANOMALY":301.304,"EPHEMERIS_TYPE":0,"NORAD_CAT_ID":67154,"ELEMENT_SET_NO":999,"REV_AT_EPOCH":3302,"BSTAR":0.000030303315,"MEAN_MOTION_DOT":1e-7,"MEAN_MOTION_DDOT":0},{"OBJECT_NAME":"KUIPER-00250","OBJECT_ID":"2025-301Y","EPOCH":"2026-07-17T01:47:22.990560","CLASSIFICATION_TYPE":"U","MEAN_MOTION":14.79928396,"ECCENTRICITY":0.00004405,"INCLINATION":51.898,"RA_OF_ASC_NODE":218.4562,"ARG_OF_PERICENTER":82.6889,"MEAN_ANOMALY":277.4124,"EPHEMERIS_TYPE":0,"NORAD_CAT_ID":67155,"ELEMENT_SET_NO":999,"REV_AT_EPOCH":3285,"BSTAR":0.00015697833,"MEAN_MOTION_DOT":0.00000976,"MEAN_MOTION_DDOT":0},{"OBJECT_NAME":"KUIPER-00251","OBJECT_ID":"2025-301Z","EPOCH":"2026-07-17T06:58:34.360608","CLASSIFICATION_TYPE":"U","MEAN_MOTION":14.79931756,"ECCENTRICITY":0.00005307,"INCLINATION":51.9001,"RA_OF_ASC_NODE":205.0689,"ARG_OF_PERICENTER":34.6261,"MEAN_ANOMALY":325.4736,"EPHEMERIS_TYPE":0,"NORAD_CAT_ID":67156,"ELEMENT_SET_NO":999,"REV_AT_EPOCH":3321,"BSTAR":0.00015419188,"MEAN_MOTION_DOT":0.00000954,"MEAN_MOTION_DDOT":0},{"OBJECT_NAME":"KUIPER-00252","OBJECT_ID":"2025-301AA","EPOCH":"2026-07-17T00:25:42.112992","CLASSIFICATION_TYPE":"U","MEAN_MOTION":14.79932956,"ECCENTRICITY":0.00004442,"INCLINATION":51.8997,"RA_OF_ASC_NODE":208.7268,"ARG_OF_PERICENTER":66.3372,"MEAN_ANOMALY":293.7637,"EPHEMERIS_TYPE":0,"NORAD_CAT_ID":67157,"ELEMENT_SET_NO":999,"REV_AT_EPOCH":3295,"BSTAR":0.00015964763,"MEAN_MOTION_DOT":0.00000996,"MEAN_MOTION_DDOT":0},{"OBJECT_NAME":"KUIPER-00261","OBJECT_ID":"2025-301AB","EPOCH":"2026-07-16T10:23:33.531936","CLASSIFICATION_TYPE":"U","MEAN_MOTION":14.79941376,"ECCENTRICITY":0.000034,"INCLINATION":51.9009,"RA_OF_ASC_NODE":221.3658,"ARG_OF_PERICENTER":53.9862,"MEAN_ANOMALY":306.1131,"EPHEMERIS_TYPE":0,"NORAD_CAT_ID":67158,"ELEMENT_SET_NO":999,"REV_AT_EPOCH":3272,"BSTAR":0.00015397,"MEAN_MOTION_DOT":0.00000953,"MEAN_MOTION_DDOT":0}]}
