KUIPER-00191            
1 67143U 25301L   26198.07187683  .00001017  00000+0  16238-3 0  9999
2 67143  51.9000 221.0213 0000351  95.9581 264.1422 14.79927901 32819
KUIPER-00196            
1 67144U 25301M   26197.47496763  .00000894  00000+0  15824-3 0  9997
2 67144  51.8976 180.0728 0001211 358.9568   1.1390 14.76347657 33308
KUIPER-00204            
1 67145U 25301N   26198.00024213  .00001013  00000+0  16186-3 0  9991
2 67145  51.9002 193.8226 0000496  25.4858 334.6129 14.79932561 33274
KUIPER-00210            
1 67146U 25301P   26197.49786764  .00000980  00000+0  15750-3 0  9998
2 67146  51.8993 223.5119 0000387  78.0590 282.0415 14.79939104 32870
KUIPER-00221            
1 67147U 25301Q   26197.52354412  .00000960  00000+0  15492-3 0  9995
2 67147  51.9006 230.9241 0000454  76.1551 283.9462 14.79931628 32602
KUIPER-00232            
1 67148U 25301R   26198.04619930  .00000886  00000+0  14519-3 0  9999
2 67148  51.8986 213.6352 0000354  69.0651 291.0349 14.79927411 32880
KUIPER-00241            
1 67149U 25301S   26197.46139797  .00000912  00000+0  14865-3 0  9997
2 67149  51.9025 226.2211 0000447  85.0491 275.0522 14.79920243 32996
KUIPER-00245            
1 67150U 25301T   26198.06109471  .00001189  00000+0  18499-3 0  9996
2 67150  51.9020 231.0814 0000292  80.9811 279.1184 14.79929439 32641
KUIPER-00246            
1 67151U 25301U   26198.31361590  .00000929  00000+0  15087-3 0  9998
2 67151  51.8997 214.9148 0000400  80.9833 279.1174 14.79939065 32914
KUIPER-00247            
1 67152U 25301V   26198.05430276  .00001038  00000+0  16511-3 0  9993
2 67152  51.8952 206.0326 0000463  70.7123 289.3890 14.79932378 32990
KUIPER-00248            
1 67153U 25301W   26198.00546337 -.00005108  00000+0 -64142-3 0  9992
2 67153  51.8987 188.8777 0000930  82.3888 277.7180 14.79937109 33397
KUIPER-00249            
1 67154U 25301X   26198.05696976  .00000010  00000+0  30303-4 0  9991
2 67154  51.8988 203.5793 0000375  58.7959 301.3040 14.79934536 33021
KUIPER-00250            
1 67155U 25301Y   26198.07457165  .00000976  00000+0  15698-3 0  9999
2 67155  51.8980 218.4562 0000440  82.6889 277.4124 14.79928396 32857
KUIPER-00251            
1 67156U 25301Z   26198.29067547  .00000954  00000+0  15419-3 0  9992
2 67156  51.9001 205.0689 0000530  34.6261 325.4736 14.79931756 33214
KUIPER-00252            
1 67157U 25301AA  26198.01784853  .00000996  00000+0  15965-3 0  9991
2 67157  51.8997 208.7268 0000444  66.3372 293.7637 14.79932956 32950
KUIPER-00261            
1 67158U 25301AB  26197.43302699  .00000953  00000+0  15397-3 0  9993
2 67158  51.9009 221.3658 0000340  53.9862 306.1131 14.79941376 32720
